BEIDOU 3 (C01)          
1 36287U 10001A   22285.85339383 -.00000283  00000+0  00000+0 0  9991
2 36287   1.7147  48.0277 0000338 306.1505 114.9028  1.00269520 46695
BEIDOU 5 (C06)          
1 36828U 10036A   22285.73285554 -.00000107  00000+0  00000+0 0  9992
2 36828  54.1974 175.1589 0030246 185.6670  31.8280  1.00264600 44754
BEIDOU 6 (C04)          
1 37210U 10057A   22285.85933098 -.00000115  00000+0  00000+0 0  9996
2 37210   0.7648  40.5164 0007440 151.0725 299.1669  1.00272500 43811
BEIDOU 7 (C07)          
1 37256U 10068A   22285.79891520 -.00000196  00000+0  00000+0 0  9993
2 37256  50.0056 288.2394 0023744 206.2179 282.5585  1.00269937 43328
BEIDOU 8 (C08)          
1 37384U 11013A   22285.74440763 -.00000189  00000+0  00000+0 0  9992
2 37384  60.4643  53.1015 0024570 178.9866 165.6253  1.00276520 42195
BEIDOU 9 (C09)          
1 37763U 11038A   22285.79764836 -.00000054  00000+0  00000+0 0  9996
2 37763  54.4785 177.6624 0098892 227.6064 356.4353  1.00257146 41175
BEIDOU 10 (C10)         
1 37948U 11073A   22285.47344892 -.00000150  00000+0  00000+0 0  9998
2 37948  50.1223 287.8898 0086680 220.1853 139.1023  1.00267522 39933
BEIDOU 11 (C05)         
1 38091U 12008A   22285.84555596  .00000054  00000+0  00000+0 0  9995
2 38091   1.8254  69.9841 0009652 338.9810 335.5278  1.00273431 39000
BEIDOU 12 (C11)         
1 38250U 12018A   22285.32813693 -.00000108  00000+0  00000+0 0  9992
2 38250  56.6572 349.7002 0023789 251.0628 198.9523  1.86234364 71269
BEIDOU 13 (C12)         
1 38251U 12018B   22285.26243156 -.00000108  00000+0  00000+0 0  9997
2 38251  56.5721 349.0192 0014450 251.2898 198.8217  1.86234163 71260
BEIDOU 15 (C14)         
1 38775U 12050B   22285.37393483  .00000011  00000+0  00000+0 0  9997
2 38775  55.4694 107.7503 0011347 333.8624  26.8225  1.86231157 68646
BEIDOU 16 (C02)         
1 38953U 12059A   22285.83633541 -.00000177  00000+0  00000+0 0  9991
2 38953   1.2106  81.3229 0023767 295.2790  29.8740  1.00267580 36574
BEIDOU 17 (C31)         
1 40549U 15019A   22285.42537936 -.00000168  00000+0  00000+0 0  9990
2 40549  51.6842 311.3949 0038670 198.7704 119.7179  1.00271934 27607
BEIDOU 18 (C57)         
1 40748U 15037A   22285.38533991 -.00000108  00000+0  00000+0 0  9997
2 40748  55.8219 347.8106 0000965   5.3129  76.4980  1.86233396 49091
BEIDOU 19 (C58)         
1 40749U 15037B   22285.75146354 -.00000109  00000+0  00000+0 0  9993
2 40749  55.8254 347.7882 0003645 293.4272 168.0196  1.86233003 49090
BEIDOU 20 (C18)         
1 40938U 15053A   22285.31799059 -.00000137  00000+0  00000+0 0  9990
2 40938  51.3227 274.5253 0046031 200.0077 116.8815  1.00266385 25877
BEIDOU IGSO-6 (C13)     
1 41434U 16021A   22285.73493425 -.00000153  00000+0  00000+0 0  9990
2 41434  58.2742  51.6240 0046173 215.4240 112.6682  1.00260187 24000
BEIDOU-2 G7 (C03)       
1 41586U 16037A   22285.87043277 -.00000356  00000+0  00000+0 0  9991
2 41586   1.6336  68.4284 0007285 351.1780  25.6876  1.00267743 23328
BEIDOU-3 M1 (C19)       
1 43001U 17069A   22285.60109101  .00000010  00000+0  00000+0 0  9997
2 43001  55.6224 107.7578 0007402 294.2422  15.1169  1.86231657 33577
BEIDOU-3 M2 (C20)       
1 43002U 17069B   22285.62045253  .00000010  00000+0  00000+0 0  9997
2 43002  55.6214 107.7934 0005873 326.5288  38.6678  1.86231283 33572
BEIDOU-3 M3 (C27)       
1 43107U 18003A   22285.29130912 -.00000110  00000+0  00000+0 0  9994
2 43107  55.2741 348.6787 0003401  68.2402 242.5817  1.86232295 32321
BEIDOU-3 M4 (C28)       
1 43108U 18003B   22285.31364230 -.00000110  00000+0  00000+0 0  9990
2 43108  55.2675 348.6670 0004055 241.6726 127.3573  1.86230920 32334
BEIDOU-3 M5 (C21)       
1 43207U 18018A   22285.20753951  .00000012  00000+0  00000+0 0  9996
2 43207  55.5804 107.8815 0004361   8.5003 351.5500  1.86231622 31717
BEIDOU-3 M6 (C22)       
1 43208U 18018B   22285.81117792  .00000009  00000+0  00000+0 0  9997
2 43208  55.5804 107.8659 0005340 309.8502  50.1424  1.86231533 31722
BEIDOU-3 M7 (C29)       
1 43245U 18029A   22285.47104830 -.00000108  00000+0  00000+0 0  9992
2 43245  55.1829 346.4339 0001150 215.5035 126.3557  1.86232717 30863
BEIDOU-3 M8 (C30)       
1 43246U 18029B   22285.32998131 -.00000108  00000+0  10000-3 0  9997
2 43246  55.1795 346.4672 0002897 349.0079 304.9025  1.86232919 30853
BEIDOU IGSO-7 (C16)     
1 43539U 18057A   22285.73695971 -.00000115  00000+0  00000+0 0  9997
2 43539  55.0902 174.6947 0051617 227.0684 359.3940  1.00274811 15681
BEIDOU-3 M9 (C23)       
1 43581U 18062A   22285.39493859  .00000000  00000+0  00000+0 0  9995
2 43581  54.2475 228.0828 0005491 281.7996 266.9839  1.86231949 28603
BEIDOU-3 M10 (C24)      
1 43582U 18062B   22285.26033329 -.00000001  00000+0  00000+0 0  9996
2 43582  54.2469 228.0766 0005443 348.6202 201.8464  1.86232438 28604
BEIDOU-3 M11 (C25)      
1 43602U 18067A   22285.19894216  .00000000  00000+0  00000+0 0  9994
2 43602  54.3308 226.7043 0007115   4.2758 186.1527  1.86231519 28099
BEIDOU-3 M12 (C26)      
1 43603U 18067B   22285.31496903  .00000000  00000+0  00000+0 0  9990
2 43603  54.3276 226.6664 0004428 349.9873 188.5842  1.86231453 28119
BEIDOU-3 M13 (C32)      
1 43622U 18072A   22285.27339279  .00000011  00000+0  00000+0 0  9996
2 43622  55.5478 107.4308 0004295 288.7689 250.9141  1.86231707 27628
BEIDOU-3 M14 (C33)      
1 43623U 18072B   22285.42137747  .00000010  00000+0  00000+0 0  9999
2 43623  55.5502 107.4174 0002804 339.6321  29.5097  1.86231741 27630
BEIDOU-3 M15 (C34)      
1 43647U 18078A   22285.63529815 -.00000109  00000+0  10000-3 0  9990
2 43647  55.0777 346.5758 0005180 358.1677  50.0781  1.86232686 27143
BEIDOU-3 M16 (C35)      
1 43648U 18078B   22285.11422159 -.00000108  00000+0  00000+0 0  9991
2 43648  55.0740 346.5997 0002909  14.9459 311.5068  1.86232257 27147
BEIDOU-3 G1 (C59)       
1 43683U 18085A   22285.85348619 -.00000280  00000+0  00000+0 0  9998
2 43683   1.0292 148.4132 0004585  50.0557 270.1764  1.00275994 14589
BEIDOU-3 M17 (C36)      
1 43706U 18093A   22284.77776793 -.00000005  00000+0  00000+0 0  9996
2 43706  54.3289 227.9977 0010010 280.4231  79.4428  1.86231995 26509
BEIDOU-3 M18 (C37)      
1 43707U 18093B   22285.43884449  .00000001  00000+0  00000+0 0  9994
2 43707  54.3305 227.9655 0009149 302.1737 232.2494  1.86232269 26503
BEIDOU-3 IGSO-1 (C38)   
1 44204U 19023A   22285.66502684 -.00000220  00000+0  00000+0 0  9998
2 44204  56.7349  51.7169 0023879 189.3598 139.2957  1.00274335 12881
BEIDOU-2 G8             
1 44231U 19027A   22285.85628604 -.00000251  00000+0  00000+0 0  9998
2 44231   1.1413  79.2799 0006414 122.8117 272.0390  1.00267600 12600
BEIDOU-3 IGSO-2 (C39)   
1 44337U 19035A   22285.73886943 -.00000113  00000+0  00000+0 0  9990
2 44337  55.1237 170.6809 0025445 190.3801  45.8530  1.00268515 12229
BEIDOU-3 M23 (C45)      
1 44542U 19061A   22285.25103072  .00000000  00000+0  00000+0 0  9993
2 44542  54.5556 228.1469 0008891 337.8647  22.0783  1.86231502 20762
BEIDOU-3 M24 (C46)      
1 44543U 19061B   22285.53328551  .00000002  00000+0  00000+0 0  9998
2 44543  54.5530 228.1057 0006364 320.5193 140.1229  1.86231834 20761
BEIDOU-3 IGSO-3         
1 44709U 19073A   22285.87692288 -.00000173  00000+0  10000-3 0  9998
2 44709  57.0746 295.1642 0027362 183.0926 338.9843  1.00273329 10975
BEIDOU-3 M21            
1 44793U 19078A   22285.26270668 -.00000108  00000+0  10000-3 0  9991
2 44793  54.9267 346.5962 0004905   9.8863 102.2720  1.86232298 19622
BEIDOU-3 M22            
1 44794U 19078B   22285.31366541 -.00000109  00000+0  00000+0 0  9990
2 44794  54.9009 346.5838 0002878   2.4638  55.7255  1.86232765 19629
BEIDOU-3 M19            
1 44864U 19090A   22285.48070133  .00000010  00000+0  00000+0 0  9999
2 44864  55.4833 107.6281 0014881 269.3868  95.1635  1.86231884 19218
BEIDOU-3 M20            
1 44865U 19090B   22285.60605186  .00000010  00000+0  00000+0 0  9996
2 44865  55.4848 107.6559 0012962 285.4214 253.0188  1.86231854 19186
BEIDOU-3 G2             
1 45344U 20017A   22285.83424358 -.00000146  00000+0  00000+0 0  9996
2 45344   2.0112 358.1096 0003694 169.9535 233.6587  1.00270695  9799
BEIDOU-3 G3             
1 45807U 20040A   22285.87043270 -.00000358  00000+0  00000+0 0  9995
2 45807   1.1852 307.3914 0009237 334.5880 163.3138  1.00267694  8606
